start=new Date('2022-08-08T00:00:00.000Z').valueOf();
sats=[{"LAUNCH_DATE":"2020-04-22","PERIOD":"95.592","CENTER_NAME":"EARTH","APOAPSIS":"548.579","NORAD_CAT_ID":"45545","OBJECT_TYPE":"PAYLOAD","EPHEMERIS_TYPE":"0","RA_OF_ASC_NODE":"227.1064","BSTAR":"0.00024638000000","SITE":"AFETR","ELEMENT_SET_NO":"999","REF_FRAME":"TEME","TLE_LINE2":"2 45545  53.0536 227.1064 0002010  54.8805 305.2372 15.06408804127639","MEAN_MOTION":"15.06408804","TIME_SYSTEM":"UTC","RCS_SIZE":"LARGE","MEAN_MOTION_DOT":"0.00003391","SEMIMAJOR_AXIS":"6925.322","OBJECT_ID":"2020-025Q","MEAN_MOTION_DDOT":"0.0000000000000","CLASSIFICATION_TYPE":"U","PERIAPSIS":"545.795","MEAN_ELEMENT_THEORY":"SGP4","EPOCH":"2022-08-07T18:18:14.537664","GP_ID":"209790960","ECCENTRICITY":"0.00020100","MEAN_ANOMALY":"305.2372","TLE_LINE1":"1 45545U 20025Q   22219.76266826  .00003391  00000-0  24638-3 0  9993","FILE":"3531552","COUNTRY_CODE":"US","INCLINATION":"53.0536","OBJECT_NAME":"STARLINK-1374","ARG_OF_PERICENTER":"54.8805","REV_AT_EPOCH":"12763","DECAY_DATE":null},{"CLASSIFICATION_TYPE":"U","OBJECT_ID":"2020-025R","MEAN_MOTION_DDOT":"0.0000000000000","MEAN_MOTION_DOT":"0.00001206","SEMIMAJOR_AXIS":"6925.336","RCS_SIZE":"LARGE","ECCENTRICITY":"0.00015630","GP_ID":"209767108","MEAN_ANOMALY":"284.1576","EPOCH":"2022-08-07T12:12:00.650304","PERIAPSIS":"546.118","MEAN_ELEMENT_THEORY":"SGP4","TLE_LINE1":"1 45546U 20025R   22219.50834086  .00001206  00000-0  99821-4 0  9995","FILE":"3531359","REV_AT_EPOCH":"12702","DECAY_DATE":null,"COUNTRY_CODE":"US","INCLINATION":"53.0549","OBJECT_NAME":"STARLINK-1375","ARG_OF_PERICENTER":"75.9587","OBJECT_TYPE":"PAYLOAD","APOAPSIS":"548.283","NORAD_CAT_ID":"45546","PERIOD":"95.592","CENTER_NAME":"EARTH","LAUNCH_DATE":"2020-04-22","ELEMENT_SET_NO":"999","SITE":"AFETR","BSTAR":"0.00009982100000","RA_OF_ASC_NODE":"228.2617","EPHEMERIS_TYPE":"0","TLE_LINE2":"2 45546  53.0549 228.2617 0001563  75.9587 284.1576 15.06404246127023","REF_FRAME":"TEME","MEAN_MOTION":"15.06404246","TIME_SYSTEM":"UTC"},{"FILE":"3531343","TLE_LINE1":"1 45547U 20025S   22219.50467506  .00001249  00000-0  10279-3 0  9991","ARG_OF_PERICENTER":"68.0623","COUNTRY_CODE":"US","INCLINATION":"53.0551","OBJECT_NAME":"STARLINK-1377","DECAY_DATE":null,"REV_AT_EPOCH":"12703","RCS_SIZE":"LARGE","SEMIMAJOR_AXIS":"6925.386","MEAN_MOTION_DOT":"0.00001249","MEAN_MOTION_DDOT":"0.0000000000000","OBJECT_ID":"2020-025S","CLASSIFICATION_TYPE":"U","MEAN_ELEMENT_THEORY":"SGP4","PERIAPSIS":"546.337","EPOCH":"2022-08-07T12:06:43.925184","GP_ID":"209767319","ECCENTRICITY":"0.00013200","MEAN_ANOMALY":"292.0506","REF_FRAME":"TEME","TLE_LINE2":"2 45547  53.0551 228.2788 0001320  68.0623 292.0506 15.06387837127039","TIME_SYSTEM":"UTC","MEAN_MOTION":"15.06387837","LAUNCH_DATE":"2020-04-22","PERIOD":"95.593","CENTER_NAME":"EARTH","NORAD_CAT_ID":"45547","APOAPSIS":"548.165","OBJECT_TYPE":"PAYLOAD","EPHEMERIS_TYPE":"0","RA_OF_ASC_NODE":"228.2788","BSTAR":"0.00010279000000","SITE":"AFETR","ELEMENT_SET_NO":"999"},{"CLASSIFICATION_TYPE":"U","MEAN_MOTION_DDOT":"0.0000000000000","OBJECT_ID":"2020-025T","MEAN_MOTION_DOT":"0.00002088","SEMIMAJOR_AXIS":"6925.340","RCS_SIZE":"LARGE","ECCENTRICITY":"0.00013040","GP_ID":"209790710","MEAN_ANOMALY":"288.4487","EPOCH":"2022-08-07T17:30:28.723968","MEAN_ELEMENT_THEORY":"SGP4","PERIAPSIS":"546.302","FILE":"3531552","TLE_LINE1":"1 45548U 20025T   22219.72949912  .00002088  00000-0  15902-3 0  9992","DECAY_DATE":null,"REV_AT_EPOCH":"12764","ARG_OF_PERICENTER":"71.6644","OBJECT_NAME":"STARLINK-1378","COUNTRY_CODE":"US","INCLINATION":"53.0524","OBJECT_TYPE":"PAYLOAD","NORAD_CAT_ID":"45548","APOAPSIS":"548.108","CENTER_NAME":"EARTH","PERIOD":"95.592","LAUNCH_DATE":"2020-04-22","ELEMENT_SET_NO":"999","SITE":"AFETR","BSTAR":"0.00015902000000","RA_OF_ASC_NODE":"227.2702","EPHEMERIS_TYPE":"0","TLE_LINE2":"2 45548  53.0524 227.2702 0001304  71.6644 288.4487 15.06402800127642","REF_FRAME":"TEME","TIME_SYSTEM":"UTC","MEAN_MOTION":"15.06402800"},{"MEAN_MOTION":"15.06403991","TIME_SYSTEM":"UTC","REF_FRAME":"TEME","TLE_LINE2":"2 45550  53.0523 227.1745 0001528  78.3045 281.8115 15.06403991127644","EPHEMERIS_TYPE":"0","RA_OF_ASC_NODE":"227.1745","BSTAR":"0.00010043000000","SITE":"AFETR","ELEMENT_SET_NO":"999","LAUNCH_DATE":"2020-04-22","PERIOD":"95.592","CENTER_NAME":"EARTH","NORAD_CAT_ID":"45550","APOAPSIS":"548.260","OBJECT_TYPE":"PAYLOAD","OBJECT_NAME":"STARLINK-1390","COUNTRY_CODE":"US","INCLINATION":"53.0523","ARG_OF_PERICENTER":"78.3045","REV_AT_EPOCH":"12764","DECAY_DATE":null,"TLE_LINE1":"1 45550U 20025V   22219.74697513  .00001215  00000-0  10043-3 0  9996","FILE":"3531552","PERIAPSIS":"546.143","MEAN_ELEMENT_THEORY":"SGP4","EPOCH":"2022-08-07T17:55:38.651232","ECCENTRICITY":"0.00015280","GP_ID":"209790460","MEAN_ANOMALY":"281.8115","RCS_SIZE":"LARGE","SEMIMAJOR_AXIS":"6925.336","MEAN_MOTION_DOT":"0.00001215","OBJECT_ID":"2020-025V","MEAN_MOTION_DDOT":"0.0000000000000","CLASSIFICATION_TYPE":"U"},{"COUNTRY_CODE":"US","INCLINATION":"53.0549","OBJECT_NAME":"STARLINK-1294","ARG_OF_PERICENTER":"69.8297","REV_AT_EPOCH":"12792","DECAY_DATE":null,"TLE_LINE1":"1 45551U 20025W   22219.68342557  .00001251  00000-0  10287-3 0  9995","FILE":"3531552","PERIAPSIS":"546.106","MEAN_ELEMENT_THEORY":"SGP4","EPOCH":"2022-08-07T16:24:07.969248","ECCENTRICITY":"0.00015970","GP_ID":"209791207","MEAN_ANOMALY":"290.2864","RCS_SIZE":"LARGE","MEAN_MOTION_DOT":"0.00001251","SEMIMAJOR_AXIS":"6925.347","OBJECT_ID":"2020-025W","MEAN_MOTION_DDOT":"0.0000000000000","CLASSIFICATION_TYPE":"U","MEAN_MOTION":"15.06400582","TIME_SYSTEM":"UTC","REF_FRAME":"TEME","TLE_LINE2":"2 45551  53.0549 207.4639 0001597  69.8297 290.2864 15.06400582127925","EPHEMERIS_TYPE":"0","RA_OF_ASC_NODE":"207.4639","SITE":"AFETR","BSTAR":"0.00010287000000","ELEMENT_SET_NO":"999","LAUNCH_DATE":"2020-04-22","PERIOD":"95.592","CENTER_NAME":"EARTH","APOAPSIS":"548.318","NORAD_CAT_ID":"45551","OBJECT_TYPE":"PAYLOAD"},{"COUNTRY_CODE":"US","INCLINATION":"53.0394","OBJECT_NAME":"STARLINK-1322","ARG_OF_PERICENTER":"277.4617","REV_AT_EPOCH":"12926","DECAY_DATE":null,"TLE_LINE1":"1 45552U 20025X   22219.89888813  .00605503  00000-0  30777-2 0  9994","FILE":"3531552","PERIAPSIS":"329.377","MEAN_ELEMENT_THEORY":"SGP4","ECCENTRICITY":"0.00046780","GP_ID":"209791446","MEAN_ANOMALY":"82.5872","EPOCH":"2022-08-07T21:34:23.934432","MEAN_MOTION_DOT":"0.00605503","SEMIMAJOR_AXIS":"6710.652","RCS_SIZE":"LARGE","CLASSIFICATION_TYPE":"U","OBJECT_ID":"2020-025X","MEAN_MOTION_DDOT":"0.0000000000000","MEAN_MOTION":"15.79267613","TIME_SYSTEM":"UTC","TLE_LINE2":"2 45552  53.0394 113.1615 0004678 277.4617  82.5872 15.79267613129263","REF_FRAME":"TEME","BSTAR":"0.00307770000000","SITE":"AFETR","RA_OF_ASC_NODE":"113.1615","EPHEMERIS_TYPE":"0","ELEMENT_SET_NO":"999","CENTER_NAME":"EARTH","PERIOD":"91.182","LAUNCH_DATE":"2020-04-22","OBJECT_TYPE":"PAYLOAD","NORAD_CAT_ID":"45552","APOAPSIS":"335.656"},{"TLE_LINE1":"1 45553U 20025Y   22219.69448754  .00003168  00000-0  23148-3 0  9993","FILE":"3531552","REV_AT_EPOCH":"12663","DECAY_DATE":null,"INCLINATION":"53.0537","COUNTRY_CODE":"US","OBJECT_NAME":"STARLINK-1323","ARG_OF_PERICENTER":"74.3090","OBJECT_ID":"2020-025Y","MEAN_MOTION_DDOT":"0.0000000000000","CLASSIFICATION_TYPE":"U","RCS_SIZE":"LARGE","MEAN_MOTION_DOT":"0.00003168","SEMIMAJOR_AXIS":"6925.339","EPOCH":"2022-08-07T16:40:03.723456","ECCENTRICITY":"0.00018340","GP_ID":"209790210","MEAN_ANOMALY":"285.8102","PERIAPSIS":"545.934","MEAN_ELEMENT_THEORY":"SGP4","REF_FRAME":"TEME","TLE_LINE2":"2 45553  53.0537 207.4022 0001834  74.3090 285.8102 15.06403098126633","MEAN_MOTION":"15.06403098","TIME_SYSTEM":"UTC","NORAD_CAT_ID":"45553","APOAPSIS":"548.474","OBJECT_TYPE":"PAYLOAD","LAUNCH_DATE":"2020-04-22","CENTER_NAME":"EARTH","PERIOD":"95.592","ELEMENT_SET_NO":"999","EPHEMERIS_TYPE":"0","RA_OF_ASC_NODE":"207.4022","BSTAR":"0.00023148000000","SITE":"AFETR"},{"MEAN_ELEMENT_THEORY":"SGP4","PERIAPSIS":"545.995","ECCENTRICITY":"0.00017400","GP_ID":"209790961","MEAN_ANOMALY":"304.0390","EPOCH":"2022-08-07T16:28:04.599840","SEMIMAJOR_AXIS":"6925.335","MEAN_MOTION_DOT":"0.00001805","RCS_SIZE":"LARGE","CLASSIFICATION_TYPE":"U","MEAN_MOTION_DDOT":"0.0000000000000","OBJECT_ID":"2020-025Z","ARG_OF_PERICENTER":"56.0764","COUNTRY_CODE":"US","INCLINATION":"53.0545","OBJECT_NAME":"STARLINK-1325","DECAY_DATE":null,"REV_AT_EPOCH":"12792","FILE":"3531552","TLE_LINE1":"1 45554U 20025Z   22219.68616435  .00001805  00000-0  14004-3 0  9993","BSTAR":"0.00014004000000","SITE":"AFETR","EPHEMERIS_TYPE":"0","RA_OF_ASC_NODE":"207.4357","ELEMENT_SET_NO":"999","PERIOD":"95.592","CENTER_NAME":"EARTH","LAUNCH_DATE":"2020-04-22","OBJECT_TYPE":"PAYLOAD","APOAPSIS":"548.405","NORAD_CAT_ID":"45554","TIME_SYSTEM":"UTC","MEAN_MOTION":"15.06404309","TLE_LINE2":"2 45554  53.0545 207.4357 0001740  56.0764 304.0390 15.06404309127927","REF_FRAME":"TEME"},{"REF_FRAME":"TEME","TLE_LINE2":"2 45555  53.0549 208.5045 0001385  74.0438 286.0703 15.06408376127285","TIME_SYSTEM":"UTC","MEAN_MOTION":"15.06408376","LAUNCH_DATE":"2020-04-22","PERIOD":"95.592","CENTER_NAME":"EARTH","NORAD_CAT_ID":"45555","APOAPSIS":"548.147","OBJECT_TYPE":"PAYLOAD","EPHEMERIS_TYPE":"0","RA_OF_ASC_NODE":"208.5045","SITE":"AFETR","BSTAR":"0.00011997000000","ELEMENT_SET_NO":"999","FILE":"3531338","TLE_LINE1":"1 45555U 20025AA  22219.45120110  .00001506  00000-0  11997-3 0  9995","ARG_OF_PERICENTER":"74.0438","COUNTRY_CODE":"US","OBJECT_NAME":"STARLINK-1327","INCLINATION":"53.0549","DECAY_DATE":null,"REV_AT_EPOCH":"12728","RCS_SIZE":"LARGE","SEMIMAJOR_AXIS":"6925.323","MEAN_MOTION_DOT":"0.00001506","MEAN_MOTION_DDOT":"0.0000000000000","OBJECT_ID":"2020-025AA","CLASSIFICATION_TYPE":"U","MEAN_ELEMENT_THEORY":"SGP4","PERIAPSIS":"546.229","EPOCH":"2022-08-07T10:49:43.775040","GP_ID":"209766792","ECCENTRICITY":"0.00013850","MEAN_ANOMALY":"286.0703"}];
